NORAD_CAT_ID,OBJECT_NAME,OBJECT_TYPE,EPOCH,MEAN_MOTION,ECCENTRICITY,INCLINATION,RA_OF_ASC_NODE,ARG_OF_PERICENTER,MEAN_ANOMALY,BSTAR,MEAN_MOTION_DOT,MEAN_MOTION_DDOT,TLE_LINE0,TLE_LINE1,TLE_LINE2,SEMIMAJOR_AXIS,PERIOD,APOGEE,PERIGEE,DECAYED
53256.0,STARLINK-4147,PAYLOAD,2023-04-18 16:41:46,15.08845671,0.0001084,53.2155,254.6586,94.591,265.5205,0.00025075,3.706e-05,0.0,0 STARLINK-4147,1 53256U 22086Q   23108.69568151  .00003706  00000-0  25075-3 0  9992,2 53256  53.2155 254.6586 0001084  94.5910 265.5205 15.08845671 41466,6917.863,95.437,540.478,538.978,0.0
53256.0,STARLINK-4147,PAYLOAD,2023-04-19 08:35:38,15.08847096,0.000108,53.2166,251.688,93.4086,266.703,0.00025965,3.848e-05,0.0,0 STARLINK-4147,1 53256U 22086Q   23109.35808290  .00003848  00000-0  25965-3 0  9992,2 53256  53.2166 251.6880 0001080  93.4086 266.7030 15.08847096 41743,6917.859,95.437,540.471,538.977,0.0
53256.0,STARLINK-4147,PAYLOAD,2023-04-19 16:32:34,15.08841247,0.0001148,53.2163,250.2001,93.5568,266.5555,8.4546e-05,1.058e-05,0.0,0 STARLINK-4147,1 53256U 22086Q   23109.68928387  .00001058  00000-0  84546-4 0  9990,2 53256  53.2163 250.2001 0001148  93.5568 266.5555 15.08841247 41798,6917.877,95.437,540.536,538.947,0.0
53256.0,STARLINK-4147,PAYLOAD,2023-04-20 02:04:52,15.08841437,0.0001245,53.2162,248.4162,95.1102,265.0032,6.3459e-05,7.22e-06,0.0,0 STARLINK-4147,1 53256U 22086Q   23110.08672383  .00000722  00000-0  63459-4 0  9995,2 53256  53.2162 248.4162 0001245  95.1102 265.0032 15.08841437 41676,6917.876,95.437,540.602,538.88,0.0
53256.0,STARLINK-4147,PAYLOAD,2023-04-20 13:12:35,15.08833746,0.0001103,53.2162,246.3343,85.6586,274.4532,1.4224e-05,-6.1e-07,0.0,0 STARLINK-4147,1 53256U 22086Q   23110.55040741 -.00000061  00000-0  14224-4 0  9997,2 53256  53.2162 246.3343 0001103  85.6586 274.4532 15.08833746 41748,6917.9,95.438,540.528,539.001,0.0
53256.0,STARLINK-4147,PAYLOAD,2023-04-20 16:23:21,15.08835954,8.72e-05,53.2163,245.7418,68.4885,291.62,0.00016095,2.274e-05,0.0,0 STARLINK-4147,1 53256U 22086Q   23110.68288820  .00002274  00000-0  16095-3 0  9997,2 53256  53.2163 245.7418 0000872  68.4885 291.6200 15.08835954 41946,6917.893,95.438,540.361,539.155,0.0
53256.0,STARLINK-4147,PAYLOAD,2023-04-21 17:49:31,15.08843115,0.0001246,53.216,240.9789,86.4112,273.7023,0.00014305,1.99e-05,0.0,0 STARLINK-4147,1 53256U 22086Q   23111.74272661  .00001990  00000-0  14305-3 0  9997,2 53256  53.2160 240.9789 0001246  86.4112 273.7023 15.08843115 41920,6917.871,95.437,540.598,538.874,0.0
53256.0,STARLINK-4147,PAYLOAD,2023-04-22 08:08:00,15.08837046,0.0001163,53.2146,238.3016,89.1096,271.0029,0.00013091,1.796e-05,0.0,0 STARLINK-4147,1 53256U 22086Q   23112.33889107  .00001796  00000-0  13091-3 0  9997,2 53256  53.2146 238.3016 0001163  89.1096 271.0029 15.08837046 42011,6917.889,95.438,540.559,538.95,0.0
53256.0,STARLINK-4147,PAYLOAD,2023-04-22 17:40:18,15.08846952,0.0001217,53.2135,236.5202,81.3114,278.8016,0.00013776,1.906e-05,0.0,0 STARLINK-4147,1 53256U 22086Q   23112.73632511  .00001906  00000-0  13776-3 0  9999,2 53256  53.2135 236.5202 0001217  81.3114 278.8016 15.08846952 42074,6917.859,95.437,540.566,538.882,0.0
53256.0,STARLINK-4147,PAYLOAD,2023-04-23 07:58:47,15.08832234,0.0001356,53.2147,233.8412,95.2566,264.8581,-6.9216e-05,-1.389e-05,0.0,0 STARLINK-4147,1 53256U 22086Q   23113.33249542 -.00001389  00000-0 -69216-4 0  9992,2 53256  53.2147 233.8412 0001356  95.2566 264.8581 15.08832234 42169,6917.904,95.438,540.707,538.831,0.0
53256.0,STARLINK-4147,PAYLOAD,2023-04-23 14:20:20,15.08836491,0.0001278,53.2161,232.6526,96.1919,263.9219,1.2704e-05,-8.6e-07,0.0,0 STARLINK-4147,1 53256U 22086Q   23113.59745749 -.00000086  00000-0  12704-4 0  9992,2 53256  53.2161 232.6526 0001278  96.1919 263.9219 15.08836491 42384,6917.891,95.438,540.64,538.872,0.0
53256.0,STARLINK-4147,PAYLOAD,2023-04-25 10:51:06,15.08830278,0.0001055,53.2155,224.3294,103.7239,256.387,-9.6239e-05,-1.819e-05,0.0,0 STARLINK-4147,1 53256U 22086Q   23115.45216154 -.00001819  00000-0 -96239-4 0  9993,2 53256  53.2155 224.3294 0001055 103.7239 256.3870 15.08830278 42667,6917.91,95.438,540.505,539.045,0.0
53256.0,STARLINK-4147,PAYLOAD,2023-04-25 23:34:11,15.08839424,0.0001661,53.2174,221.9465,165.6035,194.5005,-0.00073289,-0.00011933,0.0,0 STARLINK-4147,1 53256U 22086Q   23115.98207509 -.00011933  00000-0 -73289-3 0  9992,2 53256  53.2174 221.9465 0001661 165.6035 194.5005 15.08839424 42569,6917.882,95.438,540.896,538.598,0.0
53256.0,STARLINK-4147,PAYLOAD,2023-04-26 12:17:17,15.08823697,0.0001394,53.2164,219.57,138.85,221.2598,0.00011772,1.585e-05,0.0,0 STARLINK-4147,1 53256U 22086Q   23116.51200910  .00001585  00000-0  11772-3 0  9990,2 53256  53.2164 219.5700 0001394 138.8500 221.2598 15.08823697 42644,6917.93,95.439,540.76,538.831,0.0
53256.0,STARLINK-4147,PAYLOAD,2023-04-26 23:24:58,15.08875875,7.55e-05,53.2152,217.4884,119.3621,240.7447,-0.00050586,-8.337e-05,0.0,0 STARLINK-4147,1 53256U 22086Q   23116.97567468 -.00008337  00000-0 -50586-3 0  9994,2 53256  53.2152 217.4884 0000755 119.3621 240.7447 15.08875875 42711,6917.771,95.435,540.158,539.113,0.0
53256.0,STARLINK-4147,PAYLOAD,2023-04-27 12:08:05,15.08822274,0.0001249,53.2155,215.1099,130.8736,229.2365,0.00018883,2.717e-05,0.0,0 STARLINK-4147,1 53256U 22086Q   23117.50561829  .00002717  00000-0  18883-3 0  9997,2 53256  53.2155 215.1099 0001249 130.8736 229.2365 15.08822274 42975,6917.935,95.439,540.664,538.936,0.0
53256.0,STARLINK-4147,PAYLOAD,2023-04-28 05:37:19,15.08848027,0.0001683,53.2156,211.84,107.1995,252.9182,-2.0639e-05,-6.17e-06,0.0,0 STARLINK-4147,1 53256U 22086Q   23118.23425479 -.00000617  00000-0 -20639-4 0  9990,2 53256  53.2156 211.8400 0001683 107.1995 252.9182 15.08848027 42908,6917.856,95.437,540.885,538.557,0.0
53256.0,STARLINK-4147,PAYLOAD,2023-04-28 11:58:50,15.08910047,5.9e-05,53.2157,210.6501,95.0585,265.0474,-0.00095981,-0.00015559,0.0,0 STARLINK-4147,1 53256U 22086Q   23118.49919460 -.00015559  00000-0 -95981-3 0  9998,2 53256  53.2157 210.6501 0000590  95.0585 265.0474 15.08910047 42949,6917.666,95.433,539.939,539.123,0.0
53256.0,STARLINK-4147,PAYLOAD,2023-04-29 05:28:07,15.0883367,0.0001048,53.2165,207.3796,94.136,265.9752,7.025e-05,8.3e-06,0.0,0 STARLINK-4147,1 53256U 22086Q   23119.22786172  .00000830  00000-0  70250-4 0  9999,2 53256  53.2165 207.3796 0001048  94.1360 265.9752 15.08833670 43054,6917.9,95.438,540.49,539.04,0.0
53256.0,STARLINK-4147,PAYLOAD,2023-04-29 13:25:03,15.08834892,0.0001174,53.217,205.8933,72.0201,288.0919,4.5619e-05,4.38e-06,0.0,0 STARLINK-4147,1 53256U 22086Q   23119.55906337  .00000438  00000-0  45619-4 0  9997,2 53256  53.2170 205.8933 0001174  72.0201 288.0919 15.08834892 43288,6917.896,95.438,540.573,538.949,0.0
53256.0,STARLINK-4147,PAYLOAD,2023-04-30 11:40:26,15.0884405,0.00013,53.2164,201.7294,78.8293,281.2845,6.9317e-05,8.16e-06,0.0,0 STARLINK-4147,1 53256U 22086Q   23120.48641588  .00000816  00000-0  69317-4 0  9996,2 53256  53.2164 201.7294 0001300  78.8293 281.2845 15.08844050 43248,6917.868,95.437,540.632,538.834,0.0
53256.0,STARLINK-4147,PAYLOAD,2023-05-01 11:31:13,15.08839893,0.000111,53.2151,197.2669,81.673,278.4388,5.2511e-05,5.48e-06,0.0,0 STARLINK-4147,1 53256U 22086Q   23121.48001851  .00000548  00000-0  52511-4 0  9990,2 53256  53.2151 197.2669 0001110  81.6730 278.4388 15.08839893 43391,6917.881,95.438,540.514,538.978,0.0
53256.0,STARLINK-4147,PAYLOAD,2023-05-02 11:22:00,15.08848136,0.0001191,53.2149,192.807,67.4613,292.6505,7.5595e-05,9.16e-06,0.0,0 STARLINK-4147,1 53256U 22086Q   23122.47361162  .00000916  00000-0  75595-4 0  9990,2 53256  53.2149 192.8070 0001191  67.4613 292.6505 15.08848136 43722,6917.856,95.437,540.544,538.897,0.0
53256.0,STARLINK-4147,PAYLOAD,2023-05-02 12:57:22,15.08849803,0.0001145,53.215,192.5092,76.3383,283.7737,8.7014e-05,1.098e-05,0.0,0 STARLINK-4147,1 53256U 22086Q   23122.53984952  .00001098  00000-0  87014-4 0  9996,2 53256  53.2150 192.5092 0001145  76.3383 283.7737 15.08849803 43738,6917.85,95.437,540.508,538.923,0.0
53256.0,STARLINK-4147,PAYLOAD,2023-05-03 04:51:15,15.08835723,0.0001261,53.2152,189.5348,95.6251,264.4885,9.6006e-06,-1.35e-06,0.0,0 STARLINK-4147,1 53256U 22086Q   23123.20226018 -.00000135  00000-0  96006-5 0  9997,2 53256  53.2152 189.5348 0001261  95.6251 264.4885 15.08835723 43654,6917.893,95.438,540.631,538.886,0.0
53256.0,STARLINK-4147,PAYLOAD,2023-05-03 12:48:11,15.08834294,0.0001198,53.2157,188.0487,88.2013,271.9116,-1.7535e-05,-5.67e-06,0.0,0 STARLINK-4147,1 53256U 22086Q   23123.53346249 -.00000567  00000-0 -17535-4 0  9991,2 53256  53.2157 188.0487 0001198  88.2013 271.9116 15.08834294 43887,6917.898,95.438,540.592,538.934,0.0
53256.0,STARLINK-4147,PAYLOAD,2023-05-03 14:23:34,15.0883434,0.0001202,53.2156,187.7512,89.1235,270.9894,-1.6963e-05,-5.58e-06,0.0,0 STARLINK-4147,1 53256U 22086Q   23123.59970250 -.00000558  00000-0 -16963-4 0  9996,2 53256  53.2156 187.7512 0001202  89.1235 270.9894 15.08834340 43898,6917.898,95.438,540.594,538.931,0.0
53256.0,STARLINK-4147,PAYLOAD,2023-05-04 12:38:57,15.08850092,0.0001286,53.2159,183.5886,96.7046,263.4092,-3.6418e-05,-8.68e-06,0.0,0 STARLINK-4147,1 53256U 22086Q   23124.52705404 -.00000868  00000-0 -36418-4 0  9998,2 53256  53.2159 183.5886 0001286  96.7046 263.4092 15.08850092 43850,6917.85,95.437,540.604,538.825,0.0
53256.0,STARLINK-4147,PAYLOAD,2023-05-04 20:35:53,15.08842053,0.0001007,53.2153,182.1013,90.6231,269.4876,-4.9004e-05,-1.068e-05,0.0,0 STARLINK-4147,1 53256U 22086Q   23124.85825896 -.00001068  00000-0 -49004-4 0  9990,2 53256  53.2153 182.1013 0001007  90.6231 269.4876 15.08842053 43901,6917.874,95.437,540.436,539.042,0.0
53256.0,STARLINK-4147,PAYLOAD,2023-05-05 07:43:35,15.08832097,0.0001146,53.2166,180.0219,94.8924,265.2199,6.201e-05,6.99e-06,0.0,0 STARLINK-4147,1 53256U 22086Q   23125.32194436  .00000699  00000-0  62010-4 0  9991,2 53256  53.2166 180.0219 0001146  94.8924 265.2199 15.08832097 43975,6917.905,95.438,540.562,538.977,0.0
